IRIDIUM 57 [-]          
1 25273U 98019B   23325.45888878  .00000373  00000+0  12429-3 0  9990
2 25273  86.3995  25.5145 0002144  94.1261 266.0180 14.34987816342482
IRIDIUM 63 [-]          
1 25286U 98021B   23325.48936584  .00000495  00000+0  16556-3 0  9998
2 25286  86.3958 322.4502 0002129  85.9100 274.2340 14.35492720341512
IRIDIUM 69 [-]          
1 25319U 98026A   23325.54064579  .00000584  00000+0  18054-3 0  9997
2 25319  86.3976 337.4232 0004387 103.1165 257.0524 14.39673219340494
IRIDIUM 71 [-]          
1 25320U 98026B   23325.51786160  .00000503  00000+0  15338-3 0  9996
2 25320  86.3963 332.2508 0003134 133.6754 226.4705 14.39997250341005
IRIDIUM 73 [-]          
1 25344U 98032C   23325.45843609  .00000682  00000+0  17051-3 0  9996
2 25344  86.4385 290.0200 0002922  96.3053 263.8485 14.50137475347375
IRIDIUM 82 [-]          
1 25467U 98051A   23325.44396256  .00011433  00000+0  66236-3 0  9998
2 25467  86.3972  24.0461 0141562 263.6809  94.8286 15.03888828337057
IRIDIUM 2 [-]           
1 25527U 98066A   23325.78808540  .00049706  00000+0  10281-2 0  9994
2 25527  85.5177  75.2572 0004689  56.7871 303.3834 15.45591695374924
